OBJECT_NAME,OBJECT_ID,EPOCH,MEAN_MOTION,ECCENTRICITY,INCLINATION,RA_OF_ASC_NODE,ARG_OF_PERICENTER,MEAN_ANOMALY,EPHEMERIS_TYPE,CLASSIFICATION_TYPE,NORAD_CAT_ID,ELEMENT_SET_NO,REV_AT_EPOCH,BSTAR,MEAN_MOTION_DOT,MEAN_MOTION_DDOT
GSAT0216 (GALILEO 20),2017-079B,2026-07-03T17:32:36.085344,1.70474651,.00047255,55.0702,221.0512,276.3987,83.6257,0,U,43056,999,5328,0,.74E-6,0
GSAT0217 (GALILEO 21),2017-079C,2026-07-01T00:27:12.213504,1.70474451,.00048591,55.0679,221.1236,286.9654,73.0732,0,U,43057,999,5322,0,.74E-6,0
GSAT0218 (GALILEO 22),2017-079D,2026-07-02T23:58:07.273056,1.70474450,.00060202,55.0684,221.0667,274.6008,85.4124,0,U,43058,999,5328,0,.74E-6,0
BEIDOU-3 M7 (C27),2018-003A,2026-07-01T20:21:47.965248,1.86228484,.000456,54.3138,301.8036,96.5844,263.4825,0,U,43107,999,5762,0,-.64E-6,0
BEIDOU-3 M8 (C28),2018-003B,2026-07-03T22:34:48.076608,1.86231143,.00029388,54.3045,301.7129,257.9576,102.0322,0,U,43108,999,5767,0,-.59E-6,0
BEIDOU-3 M4 (C22),2018-018A,2026-06-30T02:07:08.825376,1.86231543,.0007448,56.6620,62.7232,23.9137,336.1827,0,U,43207,999,5698,0,-.5E-6,0
BEIDOU-3 M3 (C21),2018-018B,2026-07-03T09:02:11.753088,1.86231386,.00079871,56.6643,62.6192,343.7588,16.2854,0,U,43208,999,5704,0,-.35E-6,0
BEIDOU-3 M9 (C29),2018-029A,2026-07-01T10:43:05.589408,1.86228732,.0001004,54.1799,299.4503,175.4887,184.5291,0,U,43245,999,5616,0,-.63E-6,0
BEIDOU-3 M10 (C30),2018-029B,2026-07-01T09:08:27.870432,1.86229617,.00036167,54.1777,299.4786,39.0295,321.0130,0,U,43246,999,5614,0,-.63E-6,0
IRNSS-1I,2018-035A,2026-07-03T18:23:38.522112,1.00278714,.00177113,28.7906,73.9396,182.9770,355.7923,0,U,43286,999,3024,0,.8E-6,0
COSMOS 2527 (756),2018-053A,2026-07-02T02:25:34.724640,2.13102340,.0006722,65.5856,73.4097,233.8398,126.1632,0,U,43508,999,6259,0,-.9E-7,0
BEIDOU-2 IGSO-7 (C16),2018-057A,2026-07-01T21:23:21.693984,1.00246939,.01049468,55.1981,162.9292,237.8611,308.6338,0,U,43539,999,2927,0,-.33E-6,0
GSAT0221 (GALILEO 25),2018-060A,2026-07-03T11:44:36.561984,1.70476235,.00025435,57.1640,341.3408,292.9335,67.0341,0,U,43564,999,4944,0,-.75E-6,0
GSAT0222 (GALILEO 26),2018-060B,2026-07-01T08:42:12.934944,1.70476063,.00023358,57.1683,341.4018,239.2507,120.7178,0,U,43565,999,4945,0,-.81E-6,0
GSAT0219 (GALILEO 23),2018-060C,2026-07-02T04:04:57.428832,1.70476198,.00017741,57.1675,341.3816,308.8571,51.1194,0,U,43566,999,4944,0,-.79E-6,0
GSAT0220 (GALILEO 24),2018-060D,2026-07-03T13:32:33.271872,1.70476124,.00019364,57.1654,341.3447,298.7570,61.2182,0,U,43567,999,4945,0,-.75E-6,0
BEIDOU-3 M5 (C23),2018-062A,2026-07-01T14:30:59.385600,1.86228820,.00057012,54.0865,181.8139,291.6119,68.3325,0,U,43581,999,5390,0,.71E-6,0
BEIDOU-3 M6 (C24),2018-062B,2026-06-30T22:21:16.377120,1.86227996,.0005166,54.0861,181.8260,9.1452,350.8724,0,U,43582,999,5389,0,.69E-6,0
BEIDOU-3 M12 (C26),2018-067A,2026-07-03T13:18:40.934880,1.86227845,.00078978,54.1814,180.4851,29.9602,330.0828,0,U,43602,999,5342,0,.84E-6,0
BEIDOU-3 M11 (C25),2018-067B,2026-07-03T16:33:14.421600,1.86227316,.00046158,54.1787,180.4442,13.1596,346.8502,0,U,43603,999,5345,0,.85E-6,0
BEIDOU-3 M13 (C32),2018-072A,2026-07-02T13:41:43.065312,1.86231573,.00066302,56.6380,62.1518,331.9120,28.1218,0,U,43622,999,5294,0,-.37E-6,0
BEIDOU-3 M14 (C33),2018-072B,2026-07-02T23:21:08.978976,1.86231600,.00057053,56.6399,62.1331,5.9909,354.0859,0,U,43623,999,5294,0,-.36E-6,0
BEIDOU-3 M16 (C35),2018-078A,2026-06-30T10:38:26.690208,1.86232447,.00068914,54.0771,299.5213,40.4774,319.5856,0,U,43647,999,5240,0,-.69E-6,0
BEIDOU-3 M15 (C34),2018-078B,2026-06-30T00:51:23.712768,1.86232575,.00038812,54.0730,299.5360,58.0730,301.9745,0,U,43648,999,5241,0,-.71E-6,0
BEIDOU-3 G1 (C59),2018-085A,2026-07-04T04:22:59.238048,1.00270831,.00085236,2.9092,96.9262,353.8604,57.0665,0,U,43683,999,2823,0,-.99E-6,0
COSMOS 2529 (757),2018-086A,2026-07-02T04:44:16.979136,2.13102148,.0012102,64.2962,192.0874,256.3420,103.5558,0,U,43687,999,5960,0,.81E-6,0
BEIDOU-3 M17 (C36),2018-093A,2026-07-04T05:20:55.451328,1.86228469,.00101511,54.1701,181.7185,293.0453,245.7693,0,U,43706,999,5185,0,.91E-6,0
BEIDOU-3 M18 (C37),2018-093B,2026-07-03T19:40:12.143136,1.86226636,.00080593,54.1709,181.7241,321.9771,37.9661,0,U,43707,999,5184,0,.87E-6,0
GPS BIII-1  (PRN 04),2018-109A,2026-07-03T17:38:45.531744,2.00562540,.00385589,55.6910,91.5344,197.4684,354.7406,0,U,43873,999,5540,0,-.5E-7,0
BEIDOU-3 IGSO-1 (C38),2019-023A,2026-07-02T20:40:39.940032,1.00287534,.00256419,58.7163,37.4891,224.0382,88.2901,0,U,44204,999,736,0,-.197E-5,0
BEIDOU-2 G8 (C01),2019-027A,2026-07-04T06:01:12.169056,1.00276188,.00101682,1.6991,74.5178,285.8493,156.6423,0,U,44231,999,2625,0,-.236E-5,0
